CCSDS_OMM_VERS = 2.0
CREATION_DATE  = 
ORIGINATOR     = 

OBJECT_NAME    = STARLINK-36728
OBJECT_ID      = 2026-036Z
CENTER_NAME    = EARTH
REF_FRAME      = TEME
TIME_SYSTEM    = UTC
MEAN_ELEMENT_THEORY = SGP/SGP4

EPOCH          = 2026-03-22T04:00:01.999584
MEAN_MOTION    = 15.47290090
ECCENTRICITY   = .00014062
INCLINATION    = 42.9999
RA_OF_ASC_NODE = 175.0983
ARG_OF_PERICENTER = 278.7837
MEAN_ANOMALY   = 192.0555

EPHEMERIS_TYPE = 0
CLASSIFICATION_TYPE = U
NORAD_CAT_ID   = 67927
ELEMENT_SET_NO = 999
REV_AT_EPOCH   = 565
BSTAR          = -.40810805E-1
MEAN_MOTION_DOT = -.1912945E-1
MEAN_MOTION_DDOT = 0

CCSDS_OMM_VERS = 2.0
CREATION_DATE  = 
ORIGINATOR     = 

OBJECT_NAME    = STARLINK-36771
OBJECT_ID      = 2026-036AA
CENTER_NAME    = EARTH
REF_FRAME      = TEME
TIME_SYSTEM    = UTC
MEAN_ELEMENT_THEORY = SGP/SGP4

EPOCH          = 2026-03-22T00:00:02.000160
MEAN_MOTION    = 15.49739616
ECCENTRICITY   = .00010704
INCLINATION    = 43.0001
RA_OF_ASC_NODE = 176.1907
ARG_OF_PERICENTER = 253.7779
MEAN_ANOMALY   = 318.0757

EPHEMERIS_TYPE = 0
CLASSIFICATION_TYPE = U
NORAD_CAT_ID   = 67928
ELEMENT_SET_NO = 999
REV_AT_EPOCH   = 562
BSTAR          = -.37840499E-1
MEAN_MOTION_DOT = -.1931945E-1
MEAN_MOTION_DDOT = 0

CCSDS_OMM_VERS = 2.0
CREATION_DATE  = 
ORIGINATOR     = 

OBJECT_NAME    = STARLINK-36809
OBJECT_ID      = 2026-036AB
CENTER_NAME    = EARTH
REF_FRAME      = TEME
TIME_SYSTEM    = UTC
MEAN_ELEMENT_THEORY = SGP/SGP4

EPOCH          = 2026-03-22T00:00:02.000160
MEAN_MOTION    = 15.49866238
ECCENTRICITY   = .00009308
INCLINATION    = 43.0000
RA_OF_ASC_NODE = 176.1676
ARG_OF_PERICENTER = 257.6412
MEAN_ANOMALY   = 323.5087

EPHEMERIS_TYPE = 0
CLASSIFICATION_TYPE = U
NORAD_CAT_ID   = 67929
ELEMENT_SET_NO = 999
REV_AT_EPOCH   = 562
BSTAR          = -.37381803E-1
MEAN_MOTION_DOT = -.1918609E-1
MEAN_MOTION_DDOT = 0

CCSDS_OMM_VERS = 2.0
CREATION_DATE  = 
ORIGINATOR     = 

OBJECT_NAME    = STARLINK-36865
OBJECT_ID      = 2026-036AC
CENTER_NAME    = EARTH
REF_FRAME      = TEME
TIME_SYSTEM    = UTC
MEAN_ELEMENT_THEORY = SGP/SGP4

EPOCH          = 2026-03-22T04:00:01.999584
MEAN_MOTION    = 15.45814235
ECCENTRICITY   = .00013325
INCLINATION    = 42.9997
RA_OF_ASC_NODE = 174.8872
ARG_OF_PERICENTER = 272.5620
MEAN_ANOMALY   = 283.7663

EPHEMERIS_TYPE = 0
CLASSIFICATION_TYPE = U
NORAD_CAT_ID   = 67930
ELEMENT_SET_NO = 999
REV_AT_EPOCH   = 565
BSTAR          = -.41593884E-1
MEAN_MOTION_DOT = -.1857848E-1
MEAN_MOTION_DDOT = 0

CCSDS_OMM_VERS = 2.0
CREATION_DATE  = 
ORIGINATOR     = 

OBJECT_NAME    = STARLINK-36781
OBJECT_ID      = 2026-036AD
CENTER_NAME    = EARTH
REF_FRAME      = TEME
TIME_SYSTEM    = UTC
MEAN_ELEMENT_THEORY = SGP/SGP4

EPOCH          = 2026-03-22T04:00:01.999584
MEAN_MOTION    = 15.45211975
ECCENTRICITY   = .00014398
INCLINATION    = 42.9993
RA_OF_ASC_NODE = 174.9445
ARG_OF_PERICENTER = 275.5951
MEAN_ANOMALY   = 257.6395

EPHEMERIS_TYPE = 0
CLASSIFICATION_TYPE = U
NORAD_CAT_ID   = 67931
ELEMENT_SET_NO = 999
REV_AT_EPOCH   = 565
BSTAR          = -.44112043E-1
MEAN_MOTION_DOT = -.1922325E-1
MEAN_MOTION_DDOT = 0

CCSDS_OMM_VERS = 2.0
CREATION_DATE  = 
ORIGINATOR     = 

OBJECT_NAME    = STARLINK-36301
OBJECT_ID      = 2026-037A
CENTER_NAME    = EARTH
REF_FRAME      = TEME
TIME_SYSTEM    = UTC
MEAN_ELEMENT_THEORY = SGP/SGP4

EPOCH          = 2026-03-22T04:00:01.999584
MEAN_MOTION    = 15.64234427
ECCENTRICITY   = .00014192
INCLINATION    = 42.9993
RA_OF_ASC_NODE = 122.4533
ARG_OF_PERICENTER = 269.6800
MEAN_ANOMALY   = 92.2167

EPHEMERIS_TYPE = 0
CLASSIFICATION_TYPE = U
NORAD_CAT_ID   = 67932
ELEMENT_SET_NO = 999
REV_AT_EPOCH   = 511
BSTAR          = -.22504888E-1
MEAN_MOTION_DOT = -.1946304E-1
MEAN_MOTION_DDOT = 0

CCSDS_OMM_VERS = 2.0
CREATION_DATE  = 
ORIGINATOR     = 

OBJECT_NAME    = STARLINK-36852
OBJECT_ID      = 2026-037B
CENTER_NAME    = EARTH
REF_FRAME      = TEME
TIME_SYSTEM    = UTC
MEAN_ELEMENT_THEORY = SGP/SGP4

EPOCH          = 2026-03-22T04:00:01.999584
MEAN_MOTION    = 15.50510380
ECCENTRICITY   = .00008319
INCLINATION    = 42.9994
RA_OF_ASC_NODE = 123.3924
ARG_OF_PERICENTER = 251.8627
MEAN_ANOMALY   = 91.3245

EPHEMERIS_TYPE = 0
CLASSIFICATION_TYPE = U
NORAD_CAT_ID   = 67933
ELEMENT_SET_NO = 999
REV_AT_EPOCH   = 520
BSTAR          = .13236599E-2
MEAN_MOTION_DOT = .77896E-3
MEAN_MOTION_DDOT = 0

CCSDS_OMM_VERS = 2.0
CREATION_DATE  = 
ORIGINATOR     = 

OBJECT_NAME    = STARLINK-36861
OBJECT_ID      = 2026-037C
CENTER_NAME    = EARTH
REF_FRAME      = TEME
TIME_SYSTEM    = UTC
MEAN_ELEMENT_THEORY = SGP/SGP4

EPOCH          = 2026-03-22T04:00:01.999584
MEAN_MOTION    = 15.60172609
ECCENTRICITY   = .00013931
INCLINATION    = 42.9995
RA_OF_ASC_NODE = 122.6037
ARG_OF_PERICENTER = 265.7790
MEAN_ANOMALY   = 35.5075

EPHEMERIS_TYPE = 0
CLASSIFICATION_TYPE = U
NORAD_CAT_ID   = 67934
ELEMENT_SET_NO = 999
REV_AT_EPOCH   = 520
BSTAR          = -.2601744E-1
MEAN_MOTION_DOT = -.1920561E-1
MEAN_MOTION_DDOT = 0

CCSDS_OMM_VERS = 2.0
CREATION_DATE  = 
ORIGINATOR     = 

OBJECT_NAME    = STARLINK-36860
OBJECT_ID      = 2026-037D
CENTER_NAME    = EARTH
REF_FRAME      = TEME
TIME_SYSTEM    = UTC
MEAN_ELEMENT_THEORY = SGP/SGP4

EPOCH          = 2026-03-22T04:00:01.999584
MEAN_MOTION    = 15.52865515
ECCENTRICITY   = .00008634
INCLINATION    = 42.9992
RA_OF_ASC_NODE = 123.0040
ARG_OF_PERICENTER = 260.4317
MEAN_ANOMALY   = 239.7427

EPHEMERIS_TYPE = 0
CLASSIFICATION_TYPE = U
NORAD_CAT_ID   = 67935
ELEMENT_SET_NO = 999
REV_AT_EPOCH   = 520
BSTAR          = -.39122313E-1
MEAN_MOTION_DOT = -.2200541E-1
MEAN_MOTION_DDOT = 0

CCSDS_OMM_VERS = 2.0
CREATION_DATE  = 
ORIGINATOR     = 

OBJECT_NAME    = STARLINK-36848
OBJECT_ID      = 2026-037E
CENTER_NAME    = EARTH
REF_FRAME      = TEME
TIME_SYSTEM    = UTC
MEAN_ELEMENT_THEORY = SGP/SGP4

EPOCH          = 2026-03-22T04:00:01.999584
MEAN_MOTION    = 15.50521398
ECCENTRICITY   = .00013505
INCLINATION    = 42.9991
RA_OF_ASC_NODE = 123.1426
ARG_OF_PERICENTER = 280.0327
MEAN_ANOMALY   = 163.5238

EPHEMERIS_TYPE = 0
CLASSIFICATION_TYPE = U
NORAD_CAT_ID   = 67936
ELEMENT_SET_NO = 999
REV_AT_EPOCH   = 520
BSTAR          = .10428438E-2
MEAN_MOTION_DOT = .6119E-3
MEAN_MOTION_DDOT = 0

CCSDS_OMM_VERS = 2.0
CREATION_DATE  = 
ORIGINATOR     = 

OBJECT_NAME    = STARLINK-36370
OBJECT_ID      = 2026-037F
CENTER_NAME    = EARTH
REF_FRAME      = TEME
TIME_SYSTEM    = UTC
MEAN_ELEMENT_THEORY = SGP/SGP4

EPOCH          = 2026-03-22T04:00:01.999584
MEAN_MOTION    = 15.53534744
ECCENTRICITY   = .00009135
INCLINATION    = 42.9988
RA_OF_ASC_NODE = 122.9396
ARG_OF_PERICENTER = 271.2519
MEAN_ANOMALY   = 255.2843

EPHEMERIS_TYPE = 0
CLASSIFICATION_TYPE = U
NORAD_CAT_ID   = 67937
ELEMENT_SET_NO = 999
REV_AT_EPOCH   = 520
BSTAR          = -.31596434E-1
MEAN_MOTION_DOT = -.1827051E-1
MEAN_MOTION_DDOT = 0

CCSDS_OMM_VERS = 2.0
CREATION_DATE  = 
ORIGINATOR     = 

OBJECT_NAME    = STARLINK-36371
OBJECT_ID      = 2026-037G
CENTER_NAME    = EARTH
REF_FRAME      = TEME
TIME_SYSTEM    = UTC
MEAN_ELEMENT_THEORY = SGP/SGP4

EPOCH          = 2026-03-22T04:00:01.999584
MEAN_MOTION    = 15.57438902
ECCENTRICITY   = .00011352
INCLINATION    = 42.9988
RA_OF_ASC_NODE = 122.6963
ARG_OF_PERICENTER = 260.4589
MEAN_ANOMALY   = 3.5033

EPHEMERIS_TYPE = 0
CLASSIFICATION_TYPE = U
NORAD_CAT_ID   = 67938
ELEMENT_SET_NO = 999
REV_AT_EPOCH   = 520
BSTAR          = -.28462909E-1
MEAN_MOTION_DOT = -.1895195E-1
MEAN_MOTION_DDOT = 0

